0 DELTA 1 DEB
1 10829U 76077BZ  13281.78944615  .00000097  00000-0  11013-2 0  7437
2 10829 101.9335 005.9178 0038330 125.3090 352.8425 12.36027863676737
0 DELTA 1 DEB
1 10829U 76077BZ  13284.20403252  .00000110  00000-0  12087-2 0  7443
2 10829 101.9337 008.2666 0038231 120.9073 296.9642 12.36028603677035
0 DELTA 1 DEB
1 10829U 76077BZ  13286.48636031  .00000140  00000-0  14460-2 0  7459
2 10829 101.9338 010.4867 0038159 116.7230 012.6094 12.36029340677315
0 DELTA 1 DEB
1 10829U 76077BZ  13289.80219020  .00000175  00000-0  17163-2 0  7465
2 10829 101.9332 013.7122 0038023 110.6342 007.0345 12.36030732677725
0 DELTA 1 DEB
1 10829U 76077BZ  13291.89465591  .00000179  00000-0  17479-2 0  7478
2 10829 101.9326 015.7476 0037895 106.8053 317.8605 12.36031679677984
0 DELTA 1 DEB
1 10829U 76077BZ  13294.49921965  .00000164  00000-0  16330-2 0  7489
2 10829 101.9325 018.2809 0037740 102.0043 027.4077 12.36033065678302
